{
  "norad_id": 45145,
  "name": "ONEWEB-0038",
  "history": [
    {
      "epoch": "2026-03-28T21:42:44.483328Z",
      "apogee_km": 1220.1127100500762,
      "perigee_km": 1215.2416663274744,
      "latitude_deg": 6.973905768305032e-05,
      "longitude_deg": -114.97917536857865,
      "height_km": 1221.2076428919167,
      "semi_major_axis_km": 7595.814188188775,
      "eccentricity": 0.00032064,
      "inclination_deg": 87.8911,
      "raan_deg": 37.0246,
      "arg_perigee_deg": 105.3944,
      "mean_anomaly_deg": 254.7539,
      "mean_motion_rev_day": 13.11418372
    },
    {
      "epoch": "2026-03-29T03:12:20.600928Z",
      "apogee_km": 1220.1156867320233,
      "perigee_km": 1215.2422112191616,
      "latitude_deg": 1.3907476424300565e-05,
      "longitude_deg": 162.34922809147074,
      "height_km": 1221.2004728454144,
      "semi_major_axis_km": 7595.815948975593,
      "eccentricity": 0.0003208,
      "inclination_deg": 87.8911,
      "raan_deg": 36.9791,
      "arg_perigee_deg": 105.1689,
      "mean_anomaly_deg": 254.9794,
      "mean_motion_rev_day": 13.11417916
    }
  ]
}